[{"OBJECT_NAME":"COSMOS 2456 (730)","OBJECT_ID":"2009-070A","EPOCH":"2026-03-15T02:11:06.825408","MEAN_MOTION":2.13103812,"ECCENTRICITY":0.00063993,"INCLINATION":64.9557,"RA_OF_ASC_NODE":74.1805,"ARG_OF_PERICENTER":306.1491,"MEAN_ANOMALY":122.4207,"EPHEMERIS_TYPE":0,"CLASSIFICATION_TYPE":"U","NORAD_CAT_ID":36111,"ELEMENT_SET_NO":999,"REV_AT_EPOCH":12642,"BSTAR":0,"MEAN_MOTION_DOT":5.7e-7,"MEAN_MOTION_DDOT":0},{"OBJECT_NAME":"COSMOS 2457 (733)","OBJECT_ID":"2009-070B","EPOCH":"2026-03-14T01:15:57.143808","MEAN_MOTION":2.13101225,"ECCENTRICITY":0.00021133,"INCLINATION":64.9407,"RA_OF_ASC_NODE":74.0614,"ARG_OF_PERICENTER":199.4034,"MEAN_ANOMALY":280.8951,"EPHEMERIS_TYPE":0,"CLASSIFICATION_TYPE":"U","NORAD_CAT_ID":36112,"ELEMENT_SET_NO":999,"REV_AT_EPOCH":12640,"BSTAR":0,"MEAN_MOTION_DOT":5.2e-7,"MEAN_MOTION_DDOT":0},{"OBJECT_NAME":"COSMOS 2460 (732)","OBJECT_ID":"2010-007C","EPOCH":"2026-03-14T03:01:10.525728","MEAN_MOTION":2.13106375,"ECCENTRICITY":0.00019654,"INCLINATION":65.4743,"RA_OF_ASC_NODE":317.6854,"ARG_OF_PERICENTER":24.0874,"MEAN_ANOMALY":153.1858,"EPHEMERIS_TYPE":0,"CLASSIFICATION_TYPE":"U","NORAD_CAT_ID":36402,"ELEMENT_SET_NO":999,"REV_AT_EPOCH":12470,"BSTAR":0,"MEAN_MOTION_DOT":-2.4e-7,"MEAN_MOTION_DDOT":0},{"OBJECT_NAME":"GPS BIIF-1  (PRN 25)","OBJECT_ID":"2010-022A","EPOCH":"2026-03-14T23:18:57.898080","MEAN_MOTION":2.00557777,"ECCENTRICITY":0.01272259,"INCLINATION":54.2869,"RA_OF_ASC_NODE":212.3556,"ARG_OF_PERICENTER":65.9481,"MEAN_ANOMALY":111.6463,"EPHEMERIS_TYPE":0,"CLASSIFICATION_TYPE":"U","NORAD_CAT_ID":36585,"ELEMENT_SET_NO":999,"REV_AT_EPOCH":11570,"BSTAR":0,"MEAN_MOTION_DOT":8.0e-8,"MEAN_MOTION_DDOT":0},{"OBJECT_NAME":"BEIDOU-2 IGSO-1 (C06)","OBJECT_ID":"2010-036A","EPOCH":"2026-03-14T16:18:58.418784","MEAN_MOTION":1.00250102,"ECCENTRICITY":0.00545782,"INCLINATION":54.2922,"RA_OF_ASC_NODE":163.818,"ARG_OF_PERICENTER":219.4923,"MEAN_ANOMALY":137.9589,"EPHEMERIS_TYPE":0,"CLASSIFICATION_TYPE":"U","NORAD_CAT_ID":36828,"ELEMENT_SET_NO":999,"REV_AT_EPOCH":5714,"BSTAR":0,"MEAN_MOTION_DOT":-1.42e-6,"MEAN_MOTION_DDOT":0},{"OBJECT_NAME":"BEIDOU-2 G4 (C04)","OBJECT_ID":"2010-057A","EPOCH":"2026-03-15T05:53:19.491072","MEAN_MOTION":1.002725,"ECCENTRICITY":0.00080935,"INCLINATION":3.4121,"RA_OF_ASC_NODE":69.4786,"ARG_OF_PERICENTER":213.4177,"MEAN_ANOMALY":138.3151,"EPHEMERIS_TYPE":0,"CLASSIFICATION_TYPE":"U","NORAD_CAT_ID":37210,"ELEMENT_SET_NO":999,"REV_AT_EPOCH":5634,"BSTAR":0,"MEAN_MOTION_DOT":-1.11e-6,"MEAN_MOTION_DDOT":0},{"OBJECT_NAME":"BEIDOU-2 IGSO-2 (C07)","OBJECT_ID":"2010-068A","EPOCH":"2026-03-10T11:51:55.860192","MEAN_MOTION":1.00257833,"ECCENTRICITY":0.00474909,"INCLINATION":47.7215,"RA_OF_ASC_NODE":273.0501,"ARG_OF_PERICENTER":213.2827,"MEAN_ANOMALY":326.5355,"EPHEMERIS_TYPE":0,"CLASSIFICATION_TYPE":"U","NORAD_CAT_ID":37256,"ELEMENT_SET_NO":999,"REV_AT_EPOCH":5580,"BSTAR":0,"MEAN_MOTION_DOT":-1.57e-6,"MEAN_MOTION_DDOT":0},{"OBJECT_NAME":"BEIDOU-2 IGSO-3 (C08)","OBJECT_ID":"2011-013A","EPOCH":"2026-03-14T20:22:21.599040","MEAN_MOTION":1.0029112,"ECCENTRICITY":0.00347746,"INCLINATION":62.285,"RA_OF_ASC_NODE":41.0424,"ARG_OF_PERICENTER":190.0864,"MEAN_ANOMALY":353.6522,"EPHEMERIS_TYPE":0,"CLASSIFICATION_TYPE":"U","NORAD_CAT_ID":37384,"ELEMENT_SET_NO":999,"REV_AT_EPOCH":5471,"BSTAR":0,"MEAN_MOTION_DOT":-1.47e-6,"MEAN_MOTION_DDOT":0},{"OBJECT_NAME":"GSAT-8 (GAGAN/PRN 127)","OBJECT_ID":"2011-022A","EPOCH":"2026-03-15T05:18:30.917952","MEAN_MOTION":1.0027062,"ECCENTRICITY":0.00069586,"INCLINATION":1.8865,"RA_OF_ASC_NODE":83.0033,"ARG_OF_PERICENTER":216.8111,"MEAN_ANOMALY":7.7004,"EPHEMERIS_TYPE":0,"CLASSIFICATION_TYPE":"U","NORAD_CAT_ID":37605,"ELEMENT_SET_NO":999,"REV_AT_EPOCH":5227,"BSTAR":0,"MEAN_MOTION_DOT":8.5e-7,"MEAN_MOTION_DDOT":0},{"OBJECT_NAME":"BEIDOU-2 IGSO-4 (C09)","OBJECT_ID":"2011-038A","EPOCH":"2026-03-14T18:26:31.756704","MEAN_MOTION":1.00264319,"ECCENTRICITY":0.01553681,"INCLINATION":54.589,"RA_OF_ASC_NODE":166.5285,"ARG_OF_PERICENTER":231.0457,"MEAN_ANOMALY":145.5369,"EPHEMERIS_TYPE":0,"CLASSIFICATION_TYPE":"U","NORAD_CAT_ID":37763,"ELEMENT_SET_NO":999,"REV_AT_EPOCH":5370,"BSTAR":0,"MEAN_MOTION_DOT":-9.4e-7,"MEAN_MOTION_DDOT":0},{"OBJECT_NAME":"GSAT0101 (GALILEO-PFM)","OBJECT_ID":"2011-060A","EPOCH":"2026-03-14T09:47:54.121920","MEAN_MOTION":1.70475751,"ECCENTRICITY":0.00041001,"INCLINATION":57.0247,"RA_OF_ASC_NODE":344.3347,"ARG_OF_PERICENTER":11.0277,"MEAN_ANOMALY":349.0106,"EPHEMERIS_TYPE":0,"CLASSIFICATION_TYPE":"U","NORAD_CAT_ID":37846,"ELEMENT_SET_NO":999,"REV_AT_EPOCH":8950,"BSTAR":0,"MEAN_MOTION_DOT":-8.1e-7,"MEAN_MOTION_DDOT":0},{"OBJECT_NAME":"GSAT0102 (GALILEO-FM2)","OBJECT_ID":"2011-060B","EPOCH":"2026-03-01T01:30:59.316192","MEAN_MOTION":1.70475778,"ECCENTRICITY":0.00054225,"INCLINATION":57.0301,"RA_OF_ASC_NODE":344.6971,"ARG_OF_PERICENTER":341.2092,"MEAN_ANOMALY":154.1953,"EPHEMERIS_TYPE":0,"CLASSIFICATION_TYPE":"U","NORAD_CAT_ID":37847,"ELEMENT_SET_NO":999,"REV_AT_EPOCH":8928,"BSTAR":0,"MEAN_MOTION_DOT":-1.06e-6,"MEAN_MOTION_DDOT":0},{"OBJECT_NAME":"COSMOS 2476 (744)","OBJECT_ID":"2011-064A","EPOCH":"2026-03-15T05:12:10.807200","MEAN_MOTION":2.13103968,"ECCENTRICITY":0.00251889,"INCLINATION":65.216,"RA_OF_ASC_NODE":76.0426,"ARG_OF_PERICENTER":241.7086,"MEAN_ANOMALY":191.6717,"EPHEMERIS_TYPE":0,"CLASSIFICATION_TYPE":"U","NORAD_CAT_ID":37867,"ELEMENT_SET_NO":999,"REV_AT_EPOCH":11176,"BSTAR":0,"MEAN_MOTION_DOT":6.0e-7,"MEAN_MOTION_DDOT":0},{"OBJECT_NAME":"COSMOS 2477 (745)","OBJECT_ID":"2011-064B","EPOCH":"2026-03-10T04:34:38.705664","MEAN_MOTION":2.13102941,"ECCENTRICITY":0.00222747,"INCLINATION":65.2195,"RA_OF_ASC_NODE":76.2908,"ARG_OF_PERICENTER":243.0435,"MEAN_ANOMALY":115.1265,"EPHEMERIS_TYPE":0,"CLASSIFICATION_TYPE":"U","NORAD_CAT_ID":37868,"ELEMENT_SET_NO":999,"REV_AT_EPOCH":11164,"BSTAR":0,"MEAN_MOTION_DOT":1.9e-7,"MEAN_MOTION_DDOT":0},{"OBJECT_NAME":"COSMOS 2475 (743)","OBJECT_ID":"2011-064C","EPOCH":"2026-03-14T02:27:17.971776","MEAN_MOTION":2.13101852,"ECCENTRICITY":0.00281626,"INCLINATION":65.2287,"RA_OF_ASC_NODE":76.1793,"ARG_OF_PERICENTER":254.5882,"MEAN_ANOMALY":179.9345,"EPHEMERIS_TYPE":0,"CLASSIFICATION_TYPE":"U","NORAD_CAT_ID":37869,"ELEMENT_SET_NO":999,"REV_AT_EPOCH":11174,"BSTAR":0,"MEAN_MOTION_DOT":5.6e-7,"MEAN_MOTION_DDOT":0},{"OBJECT_NAME":"BEIDOU-2 IGSO-5 (C10)","OBJECT_ID":"2011-073A","EPOCH":"2026-03-15T00:21:59.353920","MEAN_MOTION":1.00270273,"ECCENTRICITY":0.01089395,"INCLINATION":47.8502,"RA_OF_ASC_NODE":272.708,"ARG_OF_PERICENTER":221.0218,"MEAN_ANOMALY":139.4295,"EPHEMERIS_TYPE":0,"CLASSIFICATION_TYPE":"U","NORAD_CAT_ID":37948,"ELEMENT_SET_NO":999,"REV_AT_EPOCH":5219,"BSTAR":0,"MEAN_MOTION_DOT":-9.1e-7,"MEAN_MOTION_DDOT":0},{"OBJECT_NAME":"LUCH 5A (SDCM/PRN 140)","OBJECT_ID":"2011-074B","EPOCH":"2026-03-15T05:50:35.342304","MEAN_MOTION":1.00268919,"ECCENTRICITY":0.00033799,"INCLINATION":8.5139,"RA_OF_ASC_NODE":75.1828,"ARG_OF_PERICENTER":262.702,"MEAN_ANOMALY":89.7018,"EPHEMERIS_TYPE":0,"CLASSIFICATION_TYPE":"U","NORAD_CAT_ID":37951,"ELEMENT_SET_NO":999,"REV_AT_EPOCH":5210,"BSTAR":0,"MEAN_MOTION_DOT":-4.5e-7,"MEAN_MOTION_DDOT":0}]
